FALCON 9 DEB            
1 55680U 23021BE  23058.42045449  .02794971  41463-5  10600-2 0  9993
2 55680  69.9819 122.4245 0034348 147.7836 212.5494 16.22329117  1873
FALCON 9 DEB            
1 55681U 23021BF  23058.40983727  .03840029  41835-5  10182-2 0  9997
2 55681  69.9828 122.3882 0029124 139.5914 220.7482 16.26843339  1871
FALCON 9 DEB            
1 55682U 23021BG  23058.41157512  .03482130  41604-5  10248-2 0  9996
2 55682  69.9821 122.3950 0033215 144.9567 215.3852 16.25319965  1874
INMARSAT 6-F2           
1 55683U 23022A   23056.29441088  .00000085  00000+0  44219-3 0  9993
2 55683  26.9663  50.3509 7528054 168.8465 230.4093  1.91741644    88
FALCON 9 R/B            
1 55684U 23022B   23057.83326218  .00008551  00000+0  15593-2 0  9990
2 55684  27.0274  49.7527 7584690 169.7921 227.1476  1.92368465   148
DRUMS TARGET-1          
1 55685U 21102M   23057.95391928  .00015664  00000+0  11125-2 0  9991
2 55685  97.5006 114.6388 0021131  78.0887 282.2704 15.04614271  1305
CHINASAT 26 (ZX 26)     
1 55686U 23023A   23054.65327030 -.00090925  00000+0 -14966-1 0  9993
2 55686  27.8958 327.5208 7292351 179.4456 119.0028  2.27947088    01
CZ-3B R/B               
1 55687U 23023B   23055.75585878  .00001253 -87120-7  10000-3 0  9990
2 55687  27.9224 326.9655 7225668 179.5385 348.6987  2.37970374    39
SOYUZ-MS 23             
1 55688U 23024A   23057.57067130  .00017185  00000+0  31528-3 0  9992
2 55688  51.6391 156.4498 0005527  31.2351 149.1257 15.49362822384635
SL-4 R/B                
1 55689U 23024B   23057.46720171  .92751910  12858-4  19157-3 0  9997
2 55689  51.6588 156.0568 0023861 117.2195 302.1617 16.61392240   403
2023-025A               
1 55690U 23025A   23058.51853941  .00009598  00000+0  40574-3 0  9994
2 55690  97.4726 132.4175 0010698 237.6109 247.2900 15.23388686   494
2023-025B               
1 55691U 23025B   23058.17860476 -.00000078  00000+0  00000+0 0  9999
2 55691  97.6001 132.2479 0065790 272.9480  86.4273 15.17492062   443
2023-025C               
1 55692U 23025C   23058.44941367  .00062692  00000+0  30390-2 0  9996
2 55692  97.6541 132.3288 0093709 216.7670 142.7180 15.14425502   502
2023-025D               
1 55693U 23025D   23058.45068885  .00070985  00000+0  34796-2 0  9991
2 55693  97.2438 132.2714 0095450 215.7618 143.7323 15.13868840   485
